[{"OBJECT_NAME":"STARLINK-31141","OBJECT_ID":"2024-012S","EPOCH":"2026-03-09T07:07:15.530592","MEAN_MOTION":15.27549168,"ECCENTRICITY":7.138e-5,"INCLINATION":42.9989,"RA_OF_ASC_NODE":167.6553,"ARG_OF_PERICENTER":245.7491,"MEAN_ANOMALY":114.3286,"EPHEMERIS_TYPE":0,"CLASSIFICATION_TYPE":"U","NORAD_CAT_ID":58803,"ELEMENT_SET_NO":999,"REV_AT_EPOCH":12117,"BSTAR":-0.00082860928,"MEAN_MOTION_DOT":-0.00022971,"MEAN_MOTION_DDOT":0},{"OBJECT_NAME":"TROLL","OBJECT_ID":"2025-009BB","EPOCH":"2026-03-09T05:24:19.835712","MEAN_MOTION":15.28164315,"ECCENTRICITY":0.00018165,"INCLINATION":97.3932,"RA_OF_ASC_NODE":150.7169,"ARG_OF_PERICENTER":59.185,"MEAN_ANOMALY":300.9568,"EPHEMERIS_TYPE":0,"CLASSIFICATION_TYPE":"U","NORAD_CAT_ID":62658,"ELEMENT_SET_NO":999,"REV_AT_EPOCH":11817,"BSTAR":0.00048220305,"MEAN_MOTION_DOT":0.00013174,"MEAN_MOTION_DDOT":0}]
